OPTICUBE 04             
1 41851U 16067D   18178.21947291 -.00000337  00000-0 -24185-4 0  9998
2 41851  97.9241 266.4682 0009956 126.0915 234.1229 14.96678588 88595
AEROCUBE 8D             
1 41852U 16067E   18178.19065116  .00000855  00000-0  80524-4 0  9995
2 41852  97.9253 266.2813 0011104 127.2238 232.9998 14.96503313 88572
AEROCUBE 8C             
1 41853U 16067F   18178.20503834  .00000546  00000-0  53368-4 0  9995
2 41853  97.9257 266.2583 0011386 127.4276 232.7982 14.96471236 88576
PROMETHEUS 2-1          
1 41854U 16067G   18178.47822829  .00000394  00000-0  39956-4 0  9991
2 41854  97.9263 266.5464 0011641 126.4576 233.7720 14.96580571 88610
PROMETHEUS 2-3          
1 41855U 16067H   18178.48087090  .00000238  00000-0  26208-4 0  9999
2 41855  97.9265 266.5537 0011758 126.9925 233.2374 14.96578039 88612
ITF-2                   
1 41932U 98067KU  18178.57182004  .00040850  00000-0  24738-3 0  9995
2 41932  51.6315 287.2960 0003796 267.2518  92.8048 15.77138119 82400
WASEDA-SAT3             
1 41933U 98067KV  18178.50167249  .00081137  00000-0  34490-3 0  9992
2 41933  51.6341 279.9168 0003976 295.5107  64.5485 15.84557068 82492
AOBA-VELOX 3            
1 41935U 98067KX  18178.56008404  .00058417  00000-0  28760-3 0  9995
2 41935  51.6358 282.6575 0003841 282.5729  77.4843 15.81561828 82567
INS-1B                  
1 41954U 17008G   18178.24146184  .00001687  00000-0  74660-4 0  9993
2 41954  97.4454 242.1221 0008330 327.0393  33.0323 15.23041199 75532
BGUSAT                  
1 41999U 17008BD  18178.40091666  .00003062  00000-0  12689-3 0  9995
2 41999  97.4501 243.3684 0007763 347.2735  12.8305 15.24645440 74986
DIDO-2                  
1 42000U 17008BE  18178.24767999  .00001320  00000-0  58750-4 0  9995
2 42000  97.4472 242.5651 0008121 348.3408  11.7639 15.23222408 74937
PEASSS                  
1 42015U 17008BV  18178.61468191  .00001581  00000-0  68130-4 0  9996
2 42015  97.4469 243.3982 0006242 358.6434   1.4785 15.24039353 75508
AL-FARABI 1             
1 42016U 17008BW  18178.40755555  .00002198  00000-0  92436-4 0  9998
2 42016  97.4478 243.3973 0006094   0.2455 359.8784 15.24459773 75609
NAYIF-1 (EO-88)         
1 42017U 17008BX  18178.13909454  .00002222  00000-0  93340-4 0  9991
2 42017  97.4476 243.1373 0006117   1.4573 358.6681 15.24483004 75584
HAVELSAT                
1 42700U 98067LH  18178.57711131  .00034044  00000-0  25989-3 0  9995
2 42700  51.6356 301.6193 0004275 293.6172  66.4377 15.71854543 63658
CXBN-2                  
1 42704U 98067LM  18178.60144411  .00034494  00000-0  26830-3 0  9999
2 42704  51.6362 302.5499 0001866 245.1172 114.9632 15.71408758 63569
ICECUBE                 
1 42705U 98067LN  18178.56632473  .00090811  00000-0  44850-3 0  9992
2 42705  51.6456 294.1411 0003211 305.0969  54.9732 15.81322535 63732
PHOENIX                 
1 42706U 98067LP  18178.61354007  .00026143  00000-0  22015-3 0  9999
2 42706  51.6361 303.3787 0001174 248.9659 111.1212 15.69652216 63540
X-CUBESAT               
1 42707U 98067LQ  18178.55422144  .00038286  00000-0  28439-3 0  9998
2 42707  51.6326 301.3963 0001550 269.8220  90.2601 15.72451715 63555
QBEE50-LTU-OC           
1 42708U 98067LR  18178.57059949  .00035813  00000-0  27671-3 0  9990
2 42708  51.6364 302.3225 0001568 267.9411  92.1408 15.71549596 63505
ALTAIR PATHFINDER       
1 42711U 98067LS  18178.60377487  .00017017  00000-0  17696-3 0  9990
2 42711  51.6369 310.8327 0003496 220.5854 139.4881 15.64714339 63106
SHARC                   
1 42712U 98067LT  18178.60719633  .00027350  00000-0  27981-3 0  9993
2 42712  51.6382 312.4147 0002449 239.0087 121.0668 15.64795068 63322
ZA-AEROSAT              
1 42713U 98067LU  18178.58740617  .00025328  00000-0  22536-3 0  9991
2 42713  51.6354 306.1931 0001954 222.0912 137.9935 15.68325375 63161
LINK                    
1 42714U 98067LV  18178.56604271  .00090066  00000-0  43123-3 0  9991
2 42714  51.6254 293.8341 0003145 293.8567  66.2106 15.81995079 63437
CSUNSAT 1               
1 42715U 98067LW  18178.60249907  .00026541  00000-0  22976-3 0  9998
2 42715  51.6361 305.5647 0003382 220.9119 139.1624 15.68966437 63171
SPACECUBE               
1 42717U 98067LY  18178.59737298  .00034114  00000-0  26498-3 0  9991
2 42717  51.6335 302.4750 0003191 292.5403  67.5257 15.71444630 62584
HOOPOE                  
1 42718U 98067LZ  18178.61180092  .00044761  00000-0  30597-3 0  9993
2 42718  51.6351 299.5722 0003406 295.8293  64.2354 15.74321731 62626
CHALLENGER              
1 42721U 98067MA  18178.54425376  .00174372  22245-4  56090-3 0  9993
2 42721  51.6272 288.3898 0008033 312.4602  47.5724 15.90546306 62465
NJUST-1                 
1 42722U 98067MB  18178.59066883  .00023378  00000-0  21694-3 0  9995
2 42722  51.6363 307.7387 0005215 272.3577  87.6822 15.67328185 62214
UNSW-ECO                
1 42723U 98067MC  18178.60744950  .00048417  00000-0  31887-3 0  9992
2 42723  51.6385 299.5798 0005024 282.2187  77.8250 15.75139682 62305
LILACSAT-1              
1 42725U 98067ME  18178.61575277  .00030239  00000-0  25074-3 0  9993
2 42725  51.6364 304.8946 0004428 276.4395  83.6098 15.69933262 62171
NSIGHT-1                
1 42726U 98067MF  18178.61667525  .00008802  00000-0  10591-3 0  9991
2 42726  51.6393 314.7302 0004801 271.9061  88.1383 15.61695936 62032
SNUSAT-1                
1 42727U 98067MG  18178.56399178  .00030195  00000-0  25080-3 0  9991
2 42727  51.6344 305.2438 0005697 241.1713 118.8712 15.69886220 62113
I-INSPIRE II            
1 42731U 98067ML  18178.59648608  .00044518  00000-0  28623-3 0  9994
2 42731  51.6358 298.6752 0004650 244.0937 115.9584 15.75730859 62090
POLYITAN-2-SAU          
1 42732U 98067MM  18178.62460408  .00039853  00000-0  29837-3 0  9993
2 42732  51.6349 301.9053 0004893 233.9512 126.1033 15.72235102 62055
SNUSAT-1B               
1 42733U 98067MN  18178.59452968  .00032150  00000-0  25848-3 0  9993
2 42733  51.6357 303.9748 0005110 233.1714 126.8815 15.70641119 62026
EXALTA-1                
1 42734U 98067MP  18178.57443696  .00054236  00000-0  33570-3 0  9990
2 42734  51.6293 298.4919 0006112 268.8714  91.1586 15.76502703 62044
BEEAGLESAT              
1 42736U 98067MR  18178.60058428  .00026575  00000-0  22793-3 0  9991
2 42736  51.6353 305.5163 0005457 271.4018  88.6354 15.69182009 62063
UCLSAT                  
1 42765U 17036A   18178.20320546  .00001704  00000-0  77789-4 0  9992
2 42765  97.4001 237.8905 0013052  47.7755 312.4587 15.21882875 56825
LITUANICASAT-2          
1 42768U 17036D   18178.19781904  .00002880  00000-0  13097-3 0  9999
2 42768  97.4018 237.4806 0016640  37.1825 323.0560 15.21422824 56080
AALTO-1                 
1 42775U 17036L   18178.23186797  .00001079  00000-0  52009-4 0  9997
2 42775  97.3995 237.3900 0015132  35.5059 324.7181 15.20771421 56021
URSA MAIOR              
1 42776U 17036M   18178.61269225  .00001228  00000-0  58586-4 0  9990
2 42776  97.4001 237.8170 0014945  34.5611 325.6592 15.20852367 56080
COMPASS 2               
1 42777U 17036N   18178.59843169  .00002392  00000-0  10830-3 0  9995
2 42777  97.4023 238.2067 0013912  38.5217 321.7009 15.21776240 56091
DIAMOND RED             
1 42783U 17036U   18178.40202941  .00001436  00000-0  66793-4 0  9997
2 42783  97.4003 237.9369 0013632  46.8535 313.3839 15.21486786 56069
PEGASUS                 
1 42784U 17036V   18178.11038270  .00001621  00000-0  74550-4 0  9994
2 42784  97.4005 237.7230 0013556  47.7913 312.4472 15.21691389 56028
DIAMOND GREEN           
1 42785U 17036W   18178.13783321  .00001416  00000-0  65913-4 0  9996
2 42785  97.4004 237.6905 0013557  48.3085 311.9309 15.21488412 56095
DIAMOND BLUE            
1 42786U 17036X   18178.40004388  .00001433  00000-0  66657-4 0  9991
2 42786  97.4005 237.9485 0013376  47.7402 312.4966 15.21488634 56134
NUDTSAT                 
1 42787U 17036Y   18178.61650038  .00002519  00000-0  11226-3 0  9991
2 42787  97.4012 238.4318 0013039  46.3778 313.8538 15.22281243 55958
SUCHAI                  
1 42788U 17036Z   18178.13162604  .00001898  00000-0  86123-4 0  9994
2 42788  97.4007 237.8462 0013181  47.8087 312.4265 15.21964615 56103
SKCUBE                  
1 42789U 17036AA  18178.19704258  .00001758  00000-0  80073-4 0  9991
2 42789  97.4004 237.9044 0013009  47.6445 312.5891 15.21925067 56039
VZLUSAT-1               
1 42790U 17036AB  18178.60566492  .00002438  00000-0  10868-3 0  9995
2 42790  97.4009 238.4288 0012619  47.0213 313.2079 15.22301912 56107
ROBUSTA-1B              
1 42792U 17036AD  18178.23052188  .00001859  00000-0  84185-4 0  9998
2 42792  97.4003 238.0017 0012604  48.6679 311.5640 15.22068716 56057
CICERO 6                
1 42793U 17036AE  18178.22585689  .00001261  00000-0  58346-4 0  9992
2 42793  97.3996 237.9901 0011791  50.0907 310.1364 15.21900274 56124
D-SAT                   
1 42794U 17036AF  18178.11094056  .00000315  00000-0  33218-4 0  9994
2 42794  97.5906 232.3937 0125596 248.9844 109.7902 14.90877903 55208
TOKI                    
1 42820U 98067MU  18178.61314086  .00027173  00000-0  24169-3 0  9995
2 42820  51.6354 307.8601 0002489 212.8898 147.1944 15.68290639 55513
MAZAALAI (NUMSAT-1)     
1 42822U 98067MW  18178.58487545  .00027044  00000-0  24348-3 0  9990
2 42822  51.6356 308.4267 0002545 218.2550 141.8266 15.67994632 55487
BRAC ONNESHA            
1 42823U 98067MX  18178.58024900  .00027689  00000-0  24805-3 0  9996
2 42823  51.6361 308.4144 0004866 233.9717 126.0829 15.68094335 55487
NIGERIAEDUSAT-1         
1 42824U 98067MY  18178.60580396  .00026486  00000-0  23960-3 0  9991
2 42824  51.6368 308.6024 0004752 234.2601 125.7954 15.67881557 55488
CORVUS BC2              
1 42846U 17042X   18178.26749984  .00000352  00000-0  40240-4 0  9996
2 42846  97.5968  80.7775 0010164 154.4152 205.7572 14.91825237 51879
